STARLINK-5796           
1 55916U 23037C   25276.26695642  .00002714  00000+0  23520-3 0  9991
2 55916  69.9993 341.5032 0003028 267.0501  93.0311 14.98319505139909
STARLINK-5855           
1 55917U 23037D   25276.33335648  .00318042  00000+0  18240-2 0  9993
2 55917  69.9678 261.1964 0005159 297.8448 100.1447 15.77736919  5989
STARLINK-5867           
1 55918U 23037E   25276.19601412 -.00005459  00000+0 -44973-3 0  9993
2 55918  70.0007 341.6557 0002755 276.0356  84.0489 14.98362274139892
STARLINK-5871           
1 55919U 23037F   25276.25459679  .00001270  00000+0  11425-3 0  9998
2 55919  70.0006 341.4580 0002858 264.1697  95.9136 14.98327220139900
STARLINK-5862           
1 55920U 23037G   25276.25838517  .00000988  00000+0  90601-4 0  9991
2 55920  69.9987 321.5948 0003130 272.9193  87.1608 14.98321756140396
STARLINK-5861           
1 55921U 23037H   25276.30449550  .00001672  00000+0  14792-3 0  9990
2 55921  70.0001 341.2325 0002949 265.0962  94.9860 14.98324194139910
STARLINK-5863           
1 55922U 23037J   25276.30866661  .00001587  00000+0  14077-3 0  9998
2 55922  70.0005 341.2479 0002863 265.5746  94.5086 14.98326838139918
STARLINK-5854           
1 55923U 23037K   25276.24608822  .00000798  00000+0  74641-4 0  9992
2 55923  69.9999 341.4286 0002770 275.9865  84.0979 14.98323812139903
STARLINK-5849           
1 55924U 23037L   25276.25420998  .00000921  00000+0  84960-4 0  9993
2 55924  69.9989 321.5788 0002984 268.2448  91.8369 14.98324321140398
STARLINK-5922           
1 55925U 23037M   25276.30032162  .00001593  00000+0  14132-3 0  9991
2 55925  69.9998 341.2181 0002904 265.3682  94.7146 14.98326965139912
STARLINK-5921           
1 55926U 23037N   25276.24585933 -.00000209  00000+0 -97592-5 0  9992
2 55926  69.9992 321.5525 0002918 261.9964  98.0864 14.98332103140399
STARLINK-5919           
1 55927U 23037P   25276.29213751  .00000768  00000+0  72171-4 0  9997
2 55927  69.9997 341.1902 0002966 267.0303  93.0516 14.98324506139912
STARLINK-5930           
1 55928U 23037Q   25276.28780288 -.00001124  00000+0 -86497-4 0  9996
2 55928  69.9993 341.1733 0003534 285.8895  74.1874 14.98308220139919
STARLINK-5896           
1 55930U 23037S   25276.28341618 -.00000223  00000+0 -10907-4 0  9991
2 55930  69.9988 321.2825 0003092 261.1858  98.8951 14.98325501140408
STARLINK-5897           
1 55931U 23037T   25276.28362352  .00001334  00000+0  11958-3 0  9998
2 55931  69.9997 341.1594 0003044 265.5502  94.5309 14.98325442139912
STARLINK-5848           
1 55932U 23037U   25276.24143336  .00000855  00000+0  79425-4 0  9995
2 55932  69.9977 301.2483 0003159 270.8374  89.2423 14.98328359140895
