[{"OBJECT_NAME":"STARLINK-5796","OBJECT_ID":"2023-037C","EPOCH":"2025-10-03T06:24:25.034688","MEAN_MOTION":14.98319505,"ECCENTRICITY":0.00030285,"INCLINATION":69.9993,"RA_OF_ASC_NODE":341.5032,"ARG_OF_PERICENTER":267.0501,"MEAN_ANOMALY":93.0311,"EPHEMERIS_TYPE":0,"CLASSIFICATION_TYPE":"U","NORAD_CAT_ID":55916,"ELEMENT_SET_NO":999,"REV_AT_EPOCH":13990,"BSTAR":0.00023519608,"MEAN_MOTION_DOT":2.714e-5,"MEAN_MOTION_DDOT":0},{"OBJECT_NAME":"STARLINK-5855","OBJECT_ID":"2023-037D","EPOCH":"2025-10-03T08:00:01.999872","MEAN_MOTION":15.77736919,"ECCENTRICITY":0.00051592,"INCLINATION":69.9678,"RA_OF_ASC_NODE":261.1964,"ARG_OF_PERICENTER":297.8448,"MEAN_ANOMALY":100.1447,"EPHEMERIS_TYPE":0,"CLASSIFICATION_TYPE":"U","NORAD_CAT_ID":55917,"ELEMENT_SET_NO":999,"REV_AT_EPOCH":598,"BSTAR":0.0018239585,"MEAN_MOTION_DOT":0.00318042,"MEAN_MOTION_DDOT":0},{"OBJECT_NAME":"STARLINK-5867","OBJECT_ID":"2023-037E","EPOCH":"2025-10-03T04:42:15.619968","MEAN_MOTION":14.98362274,"ECCENTRICITY":0.00027554,"INCLINATION":70.0007,"RA_OF_ASC_NODE":341.6557,"ARG_OF_PERICENTER":276.0356,"MEAN_ANOMALY":84.0489,"EPHEMERIS_TYPE":0,"CLASSIFICATION_TYPE":"U","NORAD_CAT_ID":55918,"ELEMENT_SET_NO":999,"REV_AT_EPOCH":13989,"BSTAR":-0.0004497311,"MEAN_MOTION_DOT":-5.459e-5,"MEAN_MOTION_DDOT":0},{"OBJECT_NAME":"STARLINK-5871","OBJECT_ID":"2023-037F","EPOCH":"2025-10-03T06:06:37.162656","MEAN_MOTION":14.9832722,"ECCENTRICITY":0.00028585,"INCLINATION":70.0006,"RA_OF_ASC_NODE":341.458,"ARG_OF_PERICENTER":264.1697,"MEAN_ANOMALY":95.9136,"EPHEMERIS_TYPE":0,"CLASSIFICATION_TYPE":"U","NORAD_CAT_ID":55919,"ELEMENT_SET_NO":999,"REV_AT_EPOCH":13990,"BSTAR":0.00011425018,"MEAN_MOTION_DOT":1.27e-5,"MEAN_MOTION_DDOT":0},{"OBJECT_NAME":"STARLINK-5862","OBJECT_ID":"2023-037G","EPOCH":"2025-10-03T06:12:04.478688","MEAN_MOTION":14.98321756,"ECCENTRICITY":0.00031303,"INCLINATION":69.9987,"RA_OF_ASC_NODE":321.5948,"ARG_OF_PERICENTER":272.9193,"MEAN_ANOMALY":87.1608,"EPHEMERIS_TYPE":0,"CLASSIFICATION_TYPE":"U","NORAD_CAT_ID":55920,"ELEMENT_SET_NO":999,"REV_AT_EPOCH":14039,"BSTAR":9.0600788e-5,"MEAN_MOTION_DOT":9.88e-6,"MEAN_MOTION_DDOT":0},{"OBJECT_NAME":"STARLINK-5861","OBJECT_ID":"2023-037H","EPOCH":"2025-10-03T07:18:28.411200","MEAN_MOTION":14.98324194,"ECCENTRICITY":0.00029493,"INCLINATION":70.0001,"RA_OF_ASC_NODE":341.2325,"ARG_OF_PERICENTER":265.0962,"MEAN_ANOMALY":94.986,"EPHEMERIS_TYPE":0,"CLASSIFICATION_TYPE":"U","NORAD_CAT_ID":55921,"ELEMENT_SET_NO":999,"REV_AT_EPOCH":13991,"BSTAR":0.00014791579,"MEAN_MOTION_DOT":1.672e-5,"MEAN_MOTION_DDOT":0},{"OBJECT_NAME":"STARLINK-5863","OBJECT_ID":"2023-037J","EPOCH":"2025-10-03T07:24:28.795104","MEAN_MOTION":14.98326838,"ECCENTRICITY":0.00028637,"INCLINATION":70.0005,"RA_OF_ASC_NODE":341.2479,"ARG_OF_PERICENTER":265.5746,"MEAN_ANOMALY":94.5086,"EPHEMERIS_TYPE":0,"CLASSIFICATION_TYPE":"U","NORAD_CAT_ID":55922,"ELEMENT_SET_NO":999,"REV_AT_EPOCH":13991,"BSTAR":0.00014076578,"MEAN_MOTION_DOT":1.587e-5,"MEAN_MOTION_DDOT":0},{"OBJECT_NAME":"STARLINK-5854","OBJECT_ID":"2023-037K","EPOCH":"2025-10-03T05:54:22.022208","MEAN_MOTION":14.98323812,"ECCENTRICITY":0.00027707,"INCLINATION":69.9999,"RA_OF_ASC_NODE":341.4286,"ARG_OF_PERICENTER":275.9865,"MEAN_ANOMALY":84.0979,"EPHEMERIS_TYPE":0,"CLASSIFICATION_TYPE":"U","NORAD_CAT_ID":55923,"ELEMENT_SET_NO":999,"REV_AT_EPOCH":13990,"BSTAR":7.4640685e-5,"MEAN_MOTION_DOT":7.98e-6,"MEAN_MOTION_DDOT":0},{"OBJECT_NAME":"STARLINK-5849","OBJECT_ID":"2023-037L","EPOCH":"2025-10-03T06:06:03.742272","MEAN_MOTION":14.98324321,"ECCENTRICITY":0.00029843,"INCLINATION":69.9989,"RA_OF_ASC_NODE":321.5788,"ARG_OF_PERICENTER":268.2448,"MEAN_ANOMALY":91.8369,"EPHEMERIS_TYPE":0,"CLASSIFICATION_TYPE":"U","NORAD_CAT_ID":55924,"ELEMENT_SET_NO":999,"REV_AT_EPOCH":14039,"BSTAR":8.4959719e-5,"MEAN_MOTION_DOT":9.21e-6,"MEAN_MOTION_DDOT":0},{"OBJECT_NAME":"STARLINK-5922","OBJECT_ID":"2023-037M","EPOCH":"2025-10-03T07:12:27.787968","MEAN_MOTION":14.98326965,"ECCENTRICITY":0.00029044,"INCLINATION":69.9998,"RA_OF_ASC_NODE":341.2181,"ARG_OF_PERICENTER":265.3682,"MEAN_ANOMALY":94.7146,"EPHEMERIS_TYPE":0,"CLASSIFICATION_TYPE":"U","NORAD_CAT_ID":55925,"ELEMENT_SET_NO":999,"REV_AT_EPOCH":13991,"BSTAR":0.00014132203,"MEAN_MOTION_DOT":1.593e-5,"MEAN_MOTION_DDOT":0},{"OBJECT_NAME":"STARLINK-5921","OBJECT_ID":"2023-037N","EPOCH":"2025-10-03T05:54:02.246112","MEAN_MOTION":14.98332103,"ECCENTRICITY":0.00029182,"INCLINATION":69.9992,"RA_OF_ASC_NODE":321.5525,"ARG_OF_PERICENTER":261.9964,"MEAN_ANOMALY":98.0864,"EPHEMERIS_TYPE":0,"CLASSIFICATION_TYPE":"U","NORAD_CAT_ID":55926,"ELEMENT_SET_NO":999,"REV_AT_EPOCH":14039,"BSTAR":-9.759229e-6,"MEAN_MOTION_DOT":-2.09e-6,"MEAN_MOTION_DDOT":0},{"OBJECT_NAME":"STARLINK-5919","OBJECT_ID":"2023-037P","EPOCH":"2025-10-03T07:00:40.680864","MEAN_MOTION":14.98324506,"ECCENTRICITY":0.00029661,"INCLINATION":69.9997,"RA_OF_ASC_NODE":341.1902,"ARG_OF_PERICENTER":267.0303,"MEAN_ANOMALY":93.0516,"EPHEMERIS_TYPE":0,"CLASSIFICATION_TYPE":"U","NORAD_CAT_ID":55927,"ELEMENT_SET_NO":999,"REV_AT_EPOCH":13991,"BSTAR":7.2171285e-5,"MEAN_MOTION_DOT":7.68e-6,"MEAN_MOTION_DDOT":0},{"OBJECT_NAME":"STARLINK-5930","OBJECT_ID":"2023-037Q","EPOCH":"2025-10-03T06:54:26.168832","MEAN_MOTION":14.9830822,"ECCENTRICITY":0.0003534,"INCLINATION":69.9993,"RA_OF_ASC_NODE":341.1733,"ARG_OF_PERICENTER":285.8895,"MEAN_ANOMALY":74.1874,"EPHEMERIS_TYPE":0,"CLASSIFICATION_TYPE":"U","NORAD_CAT_ID":55928,"ELEMENT_SET_NO":999,"REV_AT_EPOCH":13991,"BSTAR":-8.6496836e-5,"MEAN_MOTION_DOT":-1.124e-5,"MEAN_MOTION_DDOT":0},{"OBJECT_NAME":"STARLINK-5896","OBJECT_ID":"2023-037S","EPOCH":"2025-10-03T06:48:07.157952","MEAN_MOTION":14.98325501,"ECCENTRICITY":0.00030927,"INCLINATION":69.9988,"RA_OF_ASC_NODE":321.2825,"ARG_OF_PERICENTER":261.1858,"MEAN_ANOMALY":98.8951,"EPHEMERIS_TYPE":0,"CLASSIFICATION_TYPE":"U","NORAD_CAT_ID":55930,"ELEMENT_SET_NO":999,"REV_AT_EPOCH":14040,"BSTAR":-1.0907157e-5,"MEAN_MOTION_DOT":-2.23e-6,"MEAN_MOTION_DDOT":0},{"OBJECT_NAME":"STARLINK-5897","OBJECT_ID":"2023-037T","EPOCH":"2025-10-03T06:48:25.072128","MEAN_MOTION":14.98325442,"ECCENTRICITY":0.00030448,"INCLINATION":69.9997,"RA_OF_ASC_NODE":341.1594,"ARG_OF_PERICENTER":265.5502,"MEAN_ANOMALY":94.5309,"EPHEMERIS_TYPE":0,"CLASSIFICATION_TYPE":"U","NORAD_CAT_ID":55931,"ELEMENT_SET_NO":999,"REV_AT_EPOCH":13991,"BSTAR":0.00011958407,"MEAN_MOTION_DOT":1.334e-5,"MEAN_MOTION_DDOT":0},{"OBJECT_NAME":"STARLINK-5848","OBJECT_ID":"2023-037U","EPOCH":"2025-10-03T05:47:39.842304","MEAN_MOTION":14.98328359,"ECCENTRICITY":0.00031592,"INCLINATION":69.9977,"RA_OF_ASC_NODE":301.2483,"ARG_OF_PERICENTER":270.8374,"MEAN_ANOMALY":89.2423,"EPHEMERIS_TYPE":0,"CLASSIFICATION_TYPE":"U","NORAD_CAT_ID":55932,"ELEMENT_SET_NO":999,"REV_AT_EPOCH":14089,"BSTAR":7.9425074e-5,"MEAN_MOTION_DOT":8.55e-6,"MEAN_MOTION_DDOT":0}]
